{"type": "FeatureCollection", "features": [{"type": "Feature", "properties": {"norad_id": 66316, "name": "QPS-SAR-14 (YACHIHOKO-I)", "group": "last-30-days", "lat": 10.102038456343475, "lon": 128.12942415249398, "alt_km": 572.0898774741336, "timestamp": "2025-12-05T04:52:14.140034+00:00", "meta": {"OBJECT_NAME": "QPS-SAR-14 (YACHIHOKO-I)", "OBJECT_ID": "2025-252A", "EPOCH": "2025-12-04T15:59:51.959904", "MEAN_MOTION": 14.97574412, "ECCENTRICITY": 0.0006845, "INCLINATION": 42.0036, "RA_OF_ASC_NODE": 119.6506, "ARG_OF_PERICENTER": 95.5659, "MEAN_ANOMALY": 264.5947, "EPHEMERIS_TYPE": 0, "CLASSIFICATION_TYPE": "U", "NORAD_CAT_ID": 66316, "ELEMENT_SET_NO": 999, "REV_AT_EPOCH": 432, "BSTAR": 0.0011222, "MEAN_MOTION_DOT": 0.00013169, "MEAN_MOTION_DDOT": 0}, "tle": {"line1": "1 66316U 25252A   25338.66657361  .00013169  00000+0  11222-2 0  9998", "line2": "2 66316  42.0036 119.6506 0006845  95.5659 264.5947 14.97574412  4329"}}, "geometry": {"type": "Point", "coordinates": [128.12942415249398, 10.102038456343475]}}, {"type": "Feature", "properties": {"norad_id": 66317, "name": "ELECTRON R/B", "group": "last-30-days", "lat": -25.181378662713954, "lon": -52.7178207994393, "alt_km": 230.90590598265499, "timestamp": "2025-12-05T04:52:14.140096+00:00", "meta": {"OBJECT_NAME": "ELECTRON R/B", "OBJECT_ID": "2025-252B", "EPOCH": "2025-12-04T16:09:30.337920", "MEAN_MOTION": 16.20073041, "ECCENTRICITY": 0.0062086, "INCLINATION": 41.9852, "RA_OF_ASC_NODE": 99.2617, "ARG_OF_PERICENTER": 80.1195, "MEAN_ANOMALY": 280.6676, "EPHEMERIS_TYPE": 0, "CLASSIFICATION_TYPE": "U", "NORAD_CAT_ID": 66317, "ELEMENT_SET_NO": 999, "REV_AT_EPOCH": 455, "BSTAR": 0.0015417, "MEAN_MOTION_DOT": 0.04861387, "MEAN_MOTION_DDOT": 8.3152e-06}, "tle": {"line1": "1 66317U 25252B   25338.67326780  .04861387  83152-5  15417-2 0  9990", "line2": "2 66317  41.9852  99.2617 0062086  80.1195 280.6676 16.20073041  4557"}}, "geometry": {"type": "Point", "coordinates": [-52.7178207994393, -25.181378662713954]}}, {"type": "Feature", "properties": {"norad_id": 66319, "name": "STARLINK-35442", "group": "last-30-days", "lat": 32.480647722133575, "lon": 166.22258148070995, "alt_km": 439.4870445254146, "timestamp": "2025-12-05T04:52:14.140115+00:00", "meta": {"OBJECT_NAME": "STARLINK-35442", "OBJECT_ID": "2025-253A", "EPOCH": "2025-12-04T11:12:12.627648", "MEAN_MOTION": 15.40680264, "ECCENTRICITY": 0.0001636, "INCLINATION": 43.0027, "RA_OF_ASC_NODE": 33.5509, "ARG_OF_PERICENTER": 271.7121, "MEAN_ANOMALY": 88.3548, "EPHEMERIS_TYPE": 0, "CLASSIFICATION_TYPE": "U", "NORAD_CAT_ID": 66319, "ELEMENT_SET_NO": 999, "REV_AT_EPOCH": 564, "BSTAR": 0.002125, "MEAN_MOTION_DOT": 0.0008945, "MEAN_MOTION_DDOT": 0}, "tle": {"line1": "1 66319U 25253A   25338.46681282  .00089450  00000+0  21250-2 0  9997", "line2": "2 66319  43.0027  33.5509 0001636 271.7121  88.3548 15.40680264  5642"}}, "geometry": {"type": "Point", "coordinates": [166.22258148070995, 32.480647722133575]}}, {"type": "Feature", "properties": {"norad_id": 66320, "name": "STARLINK-34616", "group": "last-30-days", "lat": -35.642512535970745, "lon": -21.417940841578975, "alt_km": 442.1293281060307, "timestamp": "2025-12-05T04:52:14.140129+00:00", "meta": {"OBJECT_NAME": "STARLINK-34616", "OBJECT_ID": "2025-253B", "EPOCH": "2025-12-04T18:00:02.000160", "MEAN_MOTION": 15.44091342, "ECCENTRICITY": 0.0001165, "INCLINATION": 43.0006, "RA_OF_ASC_NODE": 31.5087, "ARG_OF_PERICENTER": 271.3128, "MEAN_ANOMALY": 31.0064, "EPHEMERIS_TYPE": 0, "CLASSIFICATION_TYPE": "U", "NORAD_CAT_ID": 66320, "ELEMENT_SET_NO": 999, "REV_AT_EPOCH": 584, "BSTAR": -0.049091, "MEAN_MOTION_DOT": -0.02043192, "MEAN_MOTION_DDOT": 0}, "tle": {"line1": "1 66320U 25253B   25338.75002315 -.02043192  00000+0 -49091-1 0  9994", "line2": "2 66320  43.0006  31.5087 0001165 271.3128  31.0064 15.44091342  5847"}}, "geometry": {"type": "Point", "coordinates": [-21.417940841578975, -35.642512535970745]}}, {"type": "Feature", "properties": {"norad_id": 66321, "name": "STARLINK-34615", "group": "last-30-days", "lat": -36.71817829112228, "lon": -25.156063249343923, "alt_km": 417.175486919622, "timestamp": "2025-12-05T04:52:14.140143+00:00", "meta": {"OBJECT_NAME": "STARLINK-34615", "OBJECT_ID": "2025-253C", "EPOCH": "2025-12-04T18:00:02.000160", "MEAN_MOTION": 15.50645357, "ECCENTRICITY": 0.0001665, "INCLINATION": 43.0003, "RA_OF_ASC_NODE": 30.6633, "ARG_OF_PERICENTER": 280.7282, "MEAN_ANOMALY": 6.7619, "EPHEMERIS_TYPE": 0, "CLASSIFICATION_TYPE": "U", "NORAD_CAT_ID": 66321, "ELEMENT_SET_NO": 999, "REV_AT_EPOCH": 569, "BSTAR": -0.0022769, "MEAN_MOTION_DOT": -0.00132002, "MEAN_MOTION_DDOT": 0}, "tle": {"line1": "1 66321U 25253C   25338.75002315 -.00132002  00000+0 -22769-2 0  9996", "line2": "2 66321  43.0003  30.6633 0001665 280.7282   6.7619 15.50645357  5698"}}, "geometry": {"type": "Point", "coordinates": [-25.156063249343923, -36.71817829112228]}}, {"type": "Feature", "properties": {"norad_id": 66322, "name": "STARLINK-35292", "group": "last-30-days", "lat": 10.041472839589519, "lon": -161.73513223684515, "alt_km": 443.3354660235209, "timestamp": "2025-12-05T04:52:14.140156+00:00", "meta": {"OBJECT_NAME": "STARLINK-35292", "OBJECT_ID": "2025-253D", "EPOCH": "2025-12-04T14:00:01.000224", "MEAN_MOTION": 15.40702534, "ECCENTRICITY": 0.00016414, "INCLINATION": 43.0007, "RA_OF_ASC_NODE": 32.7895, "ARG_OF_PERICENTER": 269.5668, "MEAN_ANOMALY": 55.0705, "EPHEMERIS_TYPE": 0, "CLASSIFICATION_TYPE": "U", "NORAD_CAT_ID": 66322, "ELEMENT_SET_NO": 999, "REV_AT_EPOCH": 561, "BSTAR": -0.0036875485, "MEAN_MOTION_DOT": -0.00151343, "MEAN_MOTION_DDOT": 0}, "tle": {"line1": "1 66322U 25253D   25338.58334491 -.00151343  00000+0 -36875-2 0  9993", "line2": "2 66322  43.0007  32.7895 0001641 269.5668  55.0705 15.40702534  5618"}}, "geometry": {"type": "Point", "coordinates": [-161.73513223684515, 10.041472839589519]}}, {"type": "Feature", "properties": {"norad_id": 66323, "name": "STARLINK-35309", "group": "last-30-days", "lat": -9.162610096478051, "lon": 18.80960275554645, "alt_km": 413.9784012864138, "timestamp": "2025-12-05T04:52:14.140169+00:00", "meta": {"OBJECT_NAME": "STARLINK-35309", "OBJECT_ID": "2025-253E", "EPOCH": "2025-12-04T11:55:34.293216", "MEAN_MOTION": 15.50737349, "ECCENTRICITY": 0.0003796, "INCLINATION": 43.0008, "RA_OF_ASC_NODE": 32.9093, "ARG_OF_PERICENTER": 268.5168, "MEAN_ANOMALY": 91.5257, "EPHEMERIS_TYPE": 0, "CLASSIFICATION_TYPE": "U", "NORAD_CAT_ID": 66323, "ELEMENT_SET_NO": 999, "REV_AT_EPOCH": 565, "BSTAR": 0.0030261, "MEAN_MOTION_DOT": 0.00182433, "MEAN_MOTION_DDOT": 0}, "tle": {"line1": "1 66323U 25253E   25338.49692469  .00182433  00000+0  30261-2 0  9991", "line2": "2 66323  43.0008  32.9093 0003796 268.5168  91.5257 15.50737349  5653"}}, "geometry": {"type": "Point", "coordinates": [18.80960275554645, -9.162610096478051]}}, {"type": "Feature", "properties": {"norad_id": 66324, "name": "STARLINK-35506", "group": "last-30-days", "lat": -14.56298293495591, "lon": 12.605237303241807, "alt_km": 415.8247772363893, "timestamp": "2025-12-05T04:52:14.140181+00:00", "meta": {"OBJECT_NAME": "STARLINK-35506", "OBJECT_ID": "2025-253F", "EPOCH": "2025-12-03T12:46:12.432576", "MEAN_MOTION": 15.5059009, "ECCENTRICITY": 8.705e-05, "INCLINATION": 43.0006, "RA_OF_ASC_NODE": 38.5692, "ARG_OF_PERICENTER": 276.2742, "MEAN_ANOMALY": 83.8019, "EPHEMERIS_TYPE": 0, "CLASSIFICATION_TYPE": "U", "NORAD_CAT_ID": 66324, "ELEMENT_SET_NO": 999, "REV_AT_EPOCH": 550, "BSTAR": 0.00045167229, "MEAN_MOTION_DOT": 0.00026255, "MEAN_MOTION_DDOT": 0}, "tle": {"line1": "1 66324U 25253F   25337.53208834  .00026255  00000+0  45167-3 0  9996", "line2": "2 66324  43.0006  38.5692 0000870 276.2742  83.8019 15.50590090  5507"}}, "geometry": {"type": "Point", "coordinates": [12.605237303241807, -14.56298293495591]}}, {"type": "Feature", "properties": {"norad_id": 66325, "name": "STARLINK-35504", "group": "last-30-days", "lat": -40.50236313045975, "lon": -84.56039123151291, "alt_km": 446.82119001190404, "timestamp": "2025-12-05T04:52:14.140223+00:00", "meta": {"OBJECT_NAME": "STARLINK-35504", "OBJECT_ID": "2025-253G", "EPOCH": "2025-12-04T18:00:02.000160", "MEAN_MOTION": 15.4073236, "ECCENTRICITY": 9.99e-05, "INCLINATION": 43.0005, "RA_OF_ASC_NODE": 31.6162, "ARG_OF_PERICENTER": 265.7105, "MEAN_ANOMALY": 351.481, "EPHEMERIS_TYPE": 0, "CLASSIFICATION_TYPE": "U", "NORAD_CAT_ID": 66325, "ELEMENT_SET_NO": 999, "REV_AT_EPOCH": 564, "BSTAR": -0.002355, "MEAN_MOTION_DOT": -0.00097532, "MEAN_MOTION_DDOT": 0}, "tle": {"line1": "1 66325U 25253G   25338.75002315 -.00097532  00000+0 -23550-2 0  9997", "line2": "2 66325  43.0005  31.6162 0000999 265.7105 351.4810 15.40732360  5646"}}, "geometry": {"type": "Point", "coordinates": [-84.56039123151291, -40.50236313045975]}}, {"type": "Feature", "properties": {"norad_id": 66326, "name": "STARLINK-35479", "group": "last-30-days", "lat": -8.342801684675068, "lon": 19.71796305276824, "alt_km": 414.87504189612355, "timestamp": "2025-12-05T04:52:14.140237+00:00", "meta": {"OBJECT_NAME": "STARLINK-35479", "OBJECT_ID": "2025-253H", "EPOCH": "2025-12-04T15:00:38.013408", "MEAN_MOTION": 15.50615042, "ECCENTRICITY": 0.0001415, "INCLINATION": 43.0005, "RA_OF_ASC_NODE": 32.1514, "ARG_OF_PERICENTER": 287.7439, "MEAN_ANOMALY": 72.3267, "EPHEMERIS_TYPE": 0, "CLASSIFICATION_TYPE": "U", "NORAD_CAT_ID": 66326, "ELEMENT_SET_NO": 999, "REV_AT_EPOCH": 567, "BSTAR": 0.001591, "MEAN_MOTION_DOT": 0.00094247, "MEAN_MOTION_DDOT": 0}, "tle": {"line1": "1 66326U 25253H   25338.62543997  .00094247  00000+0  15910-2 0  9999", "line2": "2 66326  43.0005  32.1514 0001415 287.7439  72.3267 15.50615042  5678"}}, "geometry": {"type": "Point", "coordinates": [19.71796305276824, -8.342801684675068]}}]}